HULIANWANG DIGUI-120    
1 67060U 25295B   25349.71694909  .00000000  00000+0  66896-4 0  9998
2 67060  50.0050 359.6709 0013223 257.2650 102.6786 14.25706335   543
HULIANWANG DIGUI-121    
1 67061U 25295C   25349.71692468 -.00000001  00000+0  66638-4 0  9993
2 67061  50.0012 359.6606 0013268 256.3366 103.6071 14.25729079   549
HULIANWANG DIGUI-122    
1 67062U 25295D   25353.85216450  .00000113  00000+0  11430-3 0  9999
2 67062  50.0054 342.2058 0013167 278.2929  81.6492 14.25755420  1138
HULIANWANG DIGUI-123    
1 67063U 25295E   25353.85143462  .00000108  00000+0  11172-3 0  9999
2 67063  50.0061 342.2044 0012482 277.4772  82.4723 14.25888230  1130
HULIANWANG DIGUI-124    
1 67064U 25295F   25353.92118197 -.00000615  00000+0 -18930-3 0  9999
2 67064  50.0035 341.8931 0012093 272.4121  87.5408 14.25949430  1140
HULIANWANG DIGUI-125    
1 67065U 25295G   25353.92115659  .00000094  00000+0  10598-3 0  9991
2 67065  50.0011 341.8914 0012279 278.3527  81.5995 14.25953933  1145
HULIANWANG DIGUI-126    
1 67066U 25295H   25353.92034525  .00000089  00000+0  10364-3 0  9999
2 67066  50.0014 341.8863 0011439 275.5023  84.4586 14.26096886  1143
HULIANWANG DIGUI-127    
1 67067U 25295J   25353.91958760 -.00000798  00000+0 -26418-3 0  9991
2 67067  50.0053 341.8896 0010876 279.3802  80.5882 14.26251046  1141
CZ-12 R/B               
1 67068U 25295K   25353.49146604 -.00000118  00000+0  15271-4 0  9992
2 67068  49.9945 342.9744 0056888 160.1053 200.2103 14.41129034  1089
XIWANG-5 02             
1 67069U 25296A   25353.87914526  .00008574  00000+0  43658-3 0  9994
2 67069  41.3527  60.8485 0014469  75.9476 284.2952 15.16810519  1049
DEAR-5                  
1 67070U 25296B   25353.87837722  .00004525  00000+0  23483-3 0  9994
2 67070  41.3553  60.8444 0016069  77.4233 282.8384 15.16876255  1032
KZ-11 R/B               
1 67071U 25296C   25354.16923020  .06669049  64696-5  53063-3 0  9993
2 67071  41.3244  61.6826 0602930   5.4045 355.2917 15.05528250  1059
